[{"OBJECT_NAME":"STARLINK-30605","OBJECT_ID":"2023-161E","EPOCH":"2026-03-09T13:29:08.649024","MEAN_MOTION":15.30184179,"ECCENTRICITY":0.0001186,"INCLINATION":53.1609,"RA_OF_ASC_NODE":166.014,"ARG_OF_PERICENTER":98.2694,"MEAN_ANOMALY":261.8441,"EPHEMERIS_TYPE":0,"CLASSIFICATION_TYPE":"U","NORAD_CAT_ID":58101,"ELEMENT_SET_NO":999,"REV_AT_EPOCH":13440,"BSTAR":-2.9228e-5,"MEAN_MOTION_DOT":-1.224e-5,"MEAN_MOTION_DDOT":0},{"OBJECT_NAME":"JINJUSAT-1B","OBJECT_ID":"2025-052A","EPOCH":"2026-03-09T15:55:38.242848","MEAN_MOTION":15.30194857,"ECCENTRICITY":0.00055504,"INCLINATION":97.4113,"RA_OF_ASC_NODE":325.4613,"ARG_OF_PERICENTER":82.193,"MEAN_ANOMALY":277.9941,"EPHEMERIS_TYPE":0,"CLASSIFICATION_TYPE":"U","NORAD_CAT_ID":63210,"ELEMENT_SET_NO":999,"REV_AT_EPOCH":5486,"BSTAR":0.00068430401,"MEAN_MOTION_DOT":0.00019955,"MEAN_MOTION_DDOT":0}]
